      2.10          N: GNSS NAV DATA                        RINEX VERSION / TYPE
fic2rin                                 04/12/2022 00:17:27 PGM / RUN BY / DATE
                                                            END OF HEADER
14 22  4 11 18  0  0.0-1.017316244543e-04-2.842170943040e-12 0.000000000000e+00
    1.330000000000e+02-3.406250000000e+00 5.051996150204e-09-1.431809407192e+00
   -2.384185791016e-07 1.695911516435e-03 5.949288606644e-06 5.153649255753e+03
    1.512000000000e+05 2.235174179077e-08 1.303095850281e+00-2.793967723846e-08
    9.528823512147e-01 2.610937500000e+02 3.046760782639e+00-8.303917320059e-09
   -2.200091642648e-10 1.000000000000e+00 2.205000000000e+03 0.000000000000e+00
    2.400000000000e+00 0.000000000000e+00-7.450580596924e-09 9.010000000000e+02
    1.440000000000e+05 4.000000000000e+00
11 22  4 11 18  0  0.0-4.210229963064e-05 7.275957614183e-12 0.000000000000e+00
    2.340000000000e+02 4.506250000000e+01 4.487329772440e-09 2.104415606523e+00
    2.404674887657e-06 3.097857115790e-04 5.144625902176e-06 5.153796224594e+03
    1.512000000000e+05 3.352761268616e-08-2.869477649148e+00 3.725290298462e-08
    9.627722757640e-01 2.819375000000e+02 2.681554712466e+00-8.199984419408e-09
    1.064330047904e-10 1.000000000000e+00 2.205000000000e+03 0.000000000000e+00
    2.400000000000e+00 6.300000000000e+01-8.847564458847e-09 7.460000000000e+02
    1.440000000000e+05 4.000000000000e+00
28 22  4 11 18  0  0.0 3.722594119608e-04-3.410605131648e-12 0.000000000000e+00
    4.100000000000e+01-2.968750000000e+00 4.606977613395e-09 2.491157453199e+00
   -1.881271600723e-07 1.664150075521e-02 6.129965186119e-06 5.153683748245e+03
    1.512000000000e+05 2.328306436539e-07 1.357331766476e+00-3.911554813385e-08
    9.685311303177e-01 2.630625000000e+02-1.282328478814e+00-7.820325747957e-09
   -3.860875106660e-10 1.000000000000e+00 2.205000000000e+03 0.000000000000e+00
    3.400000000000e+00 6.300000000000e+01-1.117587089539e-08 4.100000000000e+01
    1.440000000000e+05 4.000000000000e+00
 5 22  4 11 20  0  0.0-7.795123383403e-05-1.364242052659e-12 0.000000000000e+00
    3.300000000000e+01-5.859375000000e+01 4.616620872219e-09-2.738796512771e+00
   -3.024935722351e-06 5.910887732171e-03 3.872439265251e-06 5.153700237274e+03
    1.584000000000e+05 4.656612873077e-08-1.918787356327e+00-4.470348358154e-08
    9.599454616045e-01 3.049687500000e+02 1.008184001768e+00-8.177126324419e-09
   -9.857553463812e-11 1.000000000000e+00 2.205000000000e+03 0.000000000000e+00
    2.400000000000e+00 0.000000000000e+00-1.117587089539e-08 3.300000000000e+01
    1.512000000000e+05 4.000000000000e+00
 3 22  4 11 20  0  0.0-2.026078291237e-04-1.546140993014e-11 0.000000000000e+00
    2.100000000000e+01-7.065625000000e+01 4.469829043464e-09-2.402746772962e-01
   -3.669410943985e-06 4.029743256979e-03 3.920868039131e-06 5.153645788193e+03
    1.584000000000e+05 1.862645149231e-08-1.877632553698e+00 9.126961231232e-08
    9.729220526001e-01 3.080000000000e+02 9.410957168026e-01-8.294988376704e-09
   -2.089372745047e-10 1.000000000000e+00 2.205000000000e+03 0.000000000000e+00
    2.400000000000e+00 0.000000000000e+00 1.862645149231e-09 2.100000000000e+01
    1.512000000000e+05 4.000000000000e+00
 2 22  4 11 20  0  0.0-6.530513055623e-04-2.273736754432e-13 0.000000000000e+00
    5.400000000000e+01 5.175000000000e+01 4.544475009911e-09 1.023811907955e+00
    2.320855855942e-06 2.052168303635e-02 6.411224603653e-06 5.153640798569e+03
    1.584000000000e+05-2.719461917877e-07-3.002359576076e+00-3.520399332047e-07
    9.658790470935e-01 2.630625000000e+02-1.425155842181e+00-8.376063182367e-09
    1.264338379054e-10 1.000000000000e+00 2.205000000000e+03 0.000000000000e+00
    2.400000000000e+00 0.000000000000e+00-1.769512891769e-08 5.400000000000e+01
    1.512000000000e+05 4.000000000000e+00
 1 22  4 11 20  0  0.0 3.872970119119e-04-8.753886504564e-12 0.000000000000e+00
    2.900000000000e+01 6.043750000000e+01 4.109456889660e-09 8.818388975240e-01
    3.369525074959e-06 1.170368108433e-02 5.774199962616e-06 5.153668138504e+03
    1.584000000000e+05-9.685754776001e-08-2.911982719312e+00 8.940696716309e-08
    9.876490675023e-01 2.830937500000e+02 8.908552873557e-01-8.172840431609e-09
    8.036049019412e-11 1.000000000000e+00 2.205000000000e+03 0.000000000000e+00
    2.400000000000e+00 0.000000000000e+00 5.122274160385e-09 2.900000000000e+01
    1.512000000000e+05 4.000000000000e+00
 4 22  4 11 20  0  0.0-1.767049543560e-04 3.069544618484e-12 0.000000000000e+00
    9.300000000000e+01-6.425000000000e+01 4.222675891400e-09 2.612353624157e+00
   -3.287568688393e-06 1.769441063516e-03 1.069158315659e-05 5.153637882233e+03
    1.584000000000e+05-5.587935447693e-09-7.958800050825e-01 2.048909664154e-08
    9.612974641608e-01 1.734687500000e+02-2.987392493391e+00-7.817111328350e-09
    5.643092200298e-11 1.000000000000e+00 2.205000000000e+03 0.000000000000e+00
    2.400000000000e+00 0.000000000000e+00-4.190951585770e-09 3.490000000000e+02
    1.512000000000e+05 4.000000000000e+00
29 22  4 11 20  0  0.0-5.019586533308e-04-4.320099833421e-12 0.000000000000e+00
    2.100000000000e+01 2.925000000000e+01 4.045168497505e-09-3.051897371821e+00
    1.605600118637e-06 2.031027455814e-03 9.201467037201e-06 5.153728542328e+03
    1.584000000000e+05-1.117587089539e-08 2.386503556115e+00 7.078051567078e-08
    9.813275395453e-01 2.154375000000e+02 2.234028234849e+00-7.734965049485e-09
   -1.310768884500e-10 1.000000000000e+00 2.205000000000e+03 0.000000000000e+00
    2.400000000000e+00 0.000000000000e+00-1.024454832077e-08 2.100000000000e+01
    1.512000000000e+05 4.000000000000e+00
15 22  4 11 20  0  0.0-6.969971582294e-05 2.955857780762e-12 0.000000000000e+00
    1.500000000000e+01-7.162500000000e+01 4.910918845196e-09 2.122517296942e+00
   -3.879889845848e-06 1.398616074584e-02 9.143725037575e-06 5.153773576736e+03
    1.584000000000e+05 2.421438694000e-08-9.567949446356e-01-3.278255462646e-07
    9.300934800468e-01 1.885625000000e+02 1.084421037003e+00-8.130695818974e-09
    3.214419607765e-12 1.000000000000e+00 2.205000000000e+03 0.000000000000e+00
    2.400000000000e+00 0.000000000000e+00-1.071020960808e-08 1.500000000000e+01
    1.512000000000e+05 4.000000000000e+00
24 22  4 11 20  0  0.0 2.578380517662e-04-5.002220859751e-12 0.000000000000e+00
    1.300000000000e+01 3.650000000000e+01 5.197002190287e-09 1.178728075853e+00
    1.849606633186e-06 1.240631798282e-02 8.303672075272e-06 5.153691812515e+03
    1.584000000000e+05-1.452863216400e-07 1.385442581473e-01 1.303851604462e-07
    9.347833116028e-01 2.051562500000e+02 8.124604991552e-01-8.504997124411e-09
    2.692969315838e-10 1.000000000000e+00 2.205000000000e+03 0.000000000000e+00
    2.400000000000e+00 0.000000000000e+00 2.328306436539e-09 1.300000000000e+01
    1.512000000000e+05 4.000000000000e+00
21 22  4 11 20  0  0.0 1.603509299457e-04 3.410605131648e-13 0.000000000000e+00
    2.400000000000e+01 8.240625000000e+01 4.517331022112e-09-3.033037682102e+00
    4.338100552559e-06 2.441497833934e-02 5.459412932396e-06 5.153774208069e+03
    1.584000000000e+05 5.215406417847e-08-3.004342671251e+00 3.837049007416e-07
    9.601494816227e-01 2.702500000000e+02-9.676688425143e-01-7.854612890440e-09
    2.364384200378e-10 1.000000000000e+00 2.205000000000e+03 0.000000000000e+00
    2.400000000000e+00 0.000000000000e+00-1.024454832077e-08 2.400000000000e+01
    1.512000000000e+05 4.000000000000e+00
16 22  4 11 20  0  0.0-4.906347021461e-04-3.865352482535e-12 0.000000000000e+00
    5.900000000000e+01 4.062500000000e+00 4.613406452611e-09-2.277409307673e+00
   -1.434236764908e-07 1.278287405148e-02 6.120651960373e-06 5.153628599167e+03
    1.584000000000e+05 2.235174179077e-07 1.353821972919e+00-1.378357410431e-07
    9.693693004537e-01 2.634687500000e+02 7.249385548178e-01-7.963188841636e-09
   -1.260766801712e-10 1.000000000000e+00 2.205000000000e+03 0.000000000000e+00
    2.400000000000e+00 0.000000000000e+00-1.024454832077e-08 5.900000000000e+01
    1.512000000000e+05 4.000000000000e+00
12 22  4 11 20  0  0.0-1.988639123738e-04-5.798028723802e-12 0.000000000000e+00
    4.100000000000e+01 1.062500000000e+00 4.715553564591e-09-4.183308547364e-01
    4.470348358154e-08 8.728579967283e-03 6.638467311859e-06 5.153564233780e+03
    1.584000000000e+05-8.381903171539e-08 1.335229056553e+00 8.195638656616e-08
    9.694601213339e-01 2.638125000000e+02 1.272249104910e+00-8.250700817664e-09
   -1.903650723265e-10 1.000000000000e+00 2.205000000000e+03 0.000000000000e+00
    2.400000000000e+00 0.000000000000e+00-1.257285475731e-08 4.100000000000e+01
    1.512000000000e+05 4.000000000000e+00
 9 22  4 11 20  0  0.0-3.443444147706e-04 2.387423592154e-12 0.000000000000e+00
    3.400000000000e+01-7.275000000000e+01 4.326608792051e-09-2.740219949617e+00
   -3.695487976074e-06 2.111464040354e-03 1.052767038345e-05 5.153594409943e+03
    1.584000000000e+05 4.097819328308e-08-8.492837491057e-01-2.235174179077e-08
    9.542805644273e-01 1.740625000000e+02 1.876460697800e+00-7.844612473883e-09
   -8.571785620706e-12 1.000000000000e+00 2.205000000000e+03 0.000000000000e+00
    2.400000000000e+00 0.000000000000e+00 1.396983861923e-09 3.400000000000e+01
    1.512000000000e+05 4.000000000000e+00
10 22  4 11 20  0  0.0-3.760419785976e-04-1.261923898710e-11 0.000000000000e+00
    9.200000000000e+01-6.200000000000e+01 4.346609625166e-09-1.164120663281e+00
   -3.322958946228e-06 7.553712464869e-03 4.559755325317e-06 5.153678745270e+03
    1.584000000000e+05 1.918524503708e-07-1.880402450104e+00-1.117587089539e-08
    9.727393297433e-01 2.985937500000e+02-2.492692494602e+00-8.116409509606e-09
   -2.192948487964e-10 1.000000000000e+00 2.205000000000e+03 0.000000000000e+00
    2.400000000000e+00 0.000000000000e+00 2.328306436539e-09 9.200000000000e+01
    1.512000000000e+05 4.000000000000e+00
